HULIANWANG DIGUI-65     
1 65171U 25174H   26062.18161282  .00000094  00000+0  18575-3 0  9995
2 65171  86.4848 287.7181 0001205  85.9839 274.1433 13.24422077 26750
HULIANWANG DIGUI-66     
1 65172U 25174J   26062.09853477  .00000077  00000+0  14453-3 0  9992
2 65172  86.4883 287.8117 0001238  88.2281 271.8995 13.24421644 26748
HULIANWANG DIGUI-67     
1 65173U 25174K   26062.11367497  .00000086  00000+0  16519-3 0  9993
2 65173  86.4895 287.8399 0001237  86.6454 273.4822 13.24421312 26713
HULIANWANG DIGUI-68     
1 65228U 25178A   26062.13620330  .00000055  00000+0  94983-4 0  9996
2 65228  86.4936  49.3088 0002049  81.1120 279.0246 13.24423680 26271
HULIANWANG DIGUI-69     
1 65229U 25178B   26062.12894878  .00000044  00000+0  69228-4 0  9998
2 65229  86.4956  49.3458 0001978  82.2816 277.8542 13.24417482 26277
HULIANWANG DIGUI-70     
1 65230U 25178C   26062.19689961  .00000040  00000+0  59716-4 0  9999
2 65230  86.4895  49.1930 0002079  81.2375 278.8994 13.24418453 26288
HULIANWANG DIGUI-71     
1 65231U 25178D   26062.18932111  .00000026  00000+0  27146-4 0  9993
2 65231  86.4954  49.3085 0002017  82.0410 278.0953 13.24419368 26282
HULIANWANG DIGUI-72     
1 65232U 25178E   26062.18172454  .00000033  00000+0  43520-4 0  9992
2 65232  86.4937  49.2695 0002013  83.0858 277.0505 13.24419930 26280
HULIANWANG DIGUI-73     
1 65305U 25187A   26062.13421476 -.00000109  00000+0  32095-4 0  9999
2 65305  50.0036 226.2317 0001054 130.2611 229.8354 13.29342238 25593
HULIANWANG DIGUI-74     
1 65306U 25187B   26062.11749045 -.00000103  00000+0  44728-4 0  9993
2 65306  50.0079 226.2104 0001050 131.1939 228.9024 13.29342757 25594
HULIANWANG DIGUI-75     
1 65307U 25187C   26062.10084411 -.00000104  00000+0  43939-4 0  9996
2 65307  50.0071 226.1121 0001046 130.2394 229.8569 13.29341856 25598
HULIANWANG DIGUI-76     
1 65308U 25187D   26062.08432346 -.00000108  00000+0  35500-4 0  9997
2 65308  49.9995 226.5663 0001040 127.6489 232.4477 13.29339170 25588
HULIANWANG DIGUI-77     
1 65309U 25187E   26062.00064718 -.00000100  00000+0  51441-4 0  9998
2 65309  50.0030 226.8451 0001076 128.1513 231.9456 13.29341085 25571
HULIANWANG DIGUI-78     
1 65310U 25187F   26062.18441453 -.00000101  00000+0  50226-4 0  9995
2 65310  50.0095 225.9236 0001029 131.3679 228.7282 13.29341525 25606
HULIANWANG DIGUI-79     
1 65311U 25187G   26062.09237853 -.00000108  00000+0  35182-4 0  9994
2 65311  50.0024 226.6535 0001045 128.8384 231.2582 13.29343011 25582
HULIANWANG DIGUI-80     
1 65312U 25187H   26061.99226398 -.00000101  00000+0  49644-4 0  9996
2 65312  50.0015 226.7802 0001068 127.5459 232.5510 13.29341086 25579
