[{"OBJECT_NAME":"HULIANWANG DIGUI-65","OBJECT_ID":"2025-174H","EPOCH":"2026-03-03T04:21:31.347648","MEAN_MOTION":13.24422077,"ECCENTRICITY":0.0001205,"INCLINATION":86.4848,"RA_OF_ASC_NODE":287.7181,"ARG_OF_PERICENTER":85.9839,"MEAN_ANOMALY":274.1433,"EPHEMERIS_TYPE":0,"CLASSIFICATION_TYPE":"U","NORAD_CAT_ID":65171,"ELEMENT_SET_NO":999,"REV_AT_EPOCH":2675,"BSTAR":0.00018575,"MEAN_MOTION_DOT":9.4e-7,"MEAN_MOTION_DDOT":0},{"OBJECT_NAME":"HULIANWANG DIGUI-66","OBJECT_ID":"2025-174J","EPOCH":"2026-03-03T02:21:53.404128","MEAN_MOTION":13.24421644,"ECCENTRICITY":0.0001238,"INCLINATION":86.4883,"RA_OF_ASC_NODE":287.8117,"ARG_OF_PERICENTER":88.2281,"MEAN_ANOMALY":271.8995,"EPHEMERIS_TYPE":0,"CLASSIFICATION_TYPE":"U","NORAD_CAT_ID":65172,"ELEMENT_SET_NO":999,"REV_AT_EPOCH":2674,"BSTAR":0.00014453,"MEAN_MOTION_DOT":7.7e-7,"MEAN_MOTION_DDOT":0},{"OBJECT_NAME":"HULIANWANG DIGUI-67","OBJECT_ID":"2025-174K","EPOCH":"2026-03-03T02:43:41.517408","MEAN_MOTION":13.24421312,"ECCENTRICITY":0.0001237,"INCLINATION":86.4895,"RA_OF_ASC_NODE":287.8399,"ARG_OF_PERICENTER":86.6454,"MEAN_ANOMALY":273.4822,"EPHEMERIS_TYPE":0,"CLASSIFICATION_TYPE":"U","NORAD_CAT_ID":65173,"ELEMENT_SET_NO":999,"REV_AT_EPOCH":2671,"BSTAR":0.00016519,"MEAN_MOTION_DOT":8.6e-7,"MEAN_MOTION_DDOT":0},{"OBJECT_NAME":"HULIANWANG DIGUI-68","OBJECT_ID":"2025-178A","EPOCH":"2026-03-03T03:16:07.965120","MEAN_MOTION":13.2442368,"ECCENTRICITY":0.0002049,"INCLINATION":86.4936,"RA_OF_ASC_NODE":49.3088,"ARG_OF_PERICENTER":81.112,"MEAN_ANOMALY":279.0246,"EPHEMERIS_TYPE":0,"CLASSIFICATION_TYPE":"U","NORAD_CAT_ID":65228,"ELEMENT_SET_NO":999,"REV_AT_EPOCH":2627,"BSTAR":9.4983e-5,"MEAN_MOTION_DOT":5.5e-7,"MEAN_MOTION_DDOT":0},{"OBJECT_NAME":"HULIANWANG DIGUI-69","OBJECT_ID":"2025-178B","EPOCH":"2026-03-03T03:05:41.174592","MEAN_MOTION":13.24417482,"ECCENTRICITY":0.0001978,"INCLINATION":86.4956,"RA_OF_ASC_NODE":49.3458,"ARG_OF_PERICENTER":82.2816,"MEAN_ANOMALY":277.8542,"EPHEMERIS_TYPE":0,"CLASSIFICATION_TYPE":"U","NORAD_CAT_ID":65229,"ELEMENT_SET_NO":999,"REV_AT_EPOCH":2627,"BSTAR":6.9228e-5,"MEAN_MOTION_DOT":4.4e-7,"MEAN_MOTION_DDOT":0},{"OBJECT_NAME":"HULIANWANG DIGUI-70","OBJECT_ID":"2025-178C","EPOCH":"2026-03-03T04:43:32.126304","MEAN_MOTION":13.24418453,"ECCENTRICITY":0.0002079,"INCLINATION":86.4895,"RA_OF_ASC_NODE":49.193,"ARG_OF_PERICENTER":81.2375,"MEAN_ANOMALY":278.8994,"EPHEMERIS_TYPE":0,"CLASSIFICATION_TYPE":"U","NORAD_CAT_ID":65230,"ELEMENT_SET_NO":999,"REV_AT_EPOCH":2628,"BSTAR":5.9716e-5,"MEAN_MOTION_DOT":4.0e-7,"MEAN_MOTION_DDOT":0},{"OBJECT_NAME":"HULIANWANG DIGUI-71","OBJECT_ID":"2025-178D","EPOCH":"2026-03-03T04:32:37.343904","MEAN_MOTION":13.24419368,"ECCENTRICITY":0.0002017,"INCLINATION":86.4954,"RA_OF_ASC_NODE":49.3085,"ARG_OF_PERICENTER":82.041,"MEAN_ANOMALY":278.0953,"EPHEMERIS_TYPE":0,"CLASSIFICATION_TYPE":"U","NORAD_CAT_ID":65231,"ELEMENT_SET_NO":999,"REV_AT_EPOCH":2628,"BSTAR":2.7146e-5,"MEAN_MOTION_DOT":2.6e-7,"MEAN_MOTION_DDOT":0},{"OBJECT_NAME":"HULIANWANG DIGUI-72","OBJECT_ID":"2025-178E","EPOCH":"2026-03-03T04:21:41.000256","MEAN_MOTION":13.2441993,"ECCENTRICITY":0.0002013,"INCLINATION":86.4937,"RA_OF_ASC_NODE":49.2695,"ARG_OF_PERICENTER":83.0858,"MEAN_ANOMALY":277.0505,"EPHEMERIS_TYPE":0,"CLASSIFICATION_TYPE":"U","NORAD_CAT_ID":65232,"ELEMENT_SET_NO":999,"REV_AT_EPOCH":2628,"BSTAR":4.352e-5,"MEAN_MOTION_DOT":3.3e-7,"MEAN_MOTION_DDOT":0},{"OBJECT_NAME":"HULIANWANG DIGUI-73","OBJECT_ID":"2025-187A","EPOCH":"2026-03-03T03:13:16.155264","MEAN_MOTION":13.29342238,"ECCENTRICITY":0.0001054,"INCLINATION":50.0036,"RA_OF_ASC_NODE":226.2317,"ARG_OF_PERICENTER":130.2611,"MEAN_ANOMALY":229.8354,"EPHEMERIS_TYPE":0,"CLASSIFICATION_TYPE":"U","NORAD_CAT_ID":65305,"ELEMENT_SET_NO":999,"REV_AT_EPOCH":2559,"BSTAR":3.2095e-5,"MEAN_MOTION_DOT":-1.09e-6,"MEAN_MOTION_DDOT":0},{"OBJECT_NAME":"HULIANWANG DIGUI-74","OBJECT_ID":"2025-187B","EPOCH":"2026-03-03T02:49:11.174880","MEAN_MOTION":13.29342757,"ECCENTRICITY":0.000105,"INCLINATION":50.0079,"RA_OF_ASC_NODE":226.2104,"ARG_OF_PERICENTER":131.1939,"MEAN_ANOMALY":228.9024,"EPHEMERIS_TYPE":0,"CLASSIFICATION_TYPE":"U","NORAD_CAT_ID":65306,"ELEMENT_SET_NO":999,"REV_AT_EPOCH":2559,"BSTAR":4.4728e-5,"MEAN_MOTION_DOT":-1.03e-6,"MEAN_MOTION_DDOT":0},{"OBJECT_NAME":"HULIANWANG DIGUI-75","OBJECT_ID":"2025-187C","EPOCH":"2026-03-03T02:25:12.931104","MEAN_MOTION":13.29341856,"ECCENTRICITY":0.0001046,"INCLINATION":50.0071,"RA_OF_ASC_NODE":226.1121,"ARG_OF_PERICENTER":130.2394,"MEAN_ANOMALY":229.8569,"EPHEMERIS_TYPE":0,"CLASSIFICATION_TYPE":"U","NORAD_CAT_ID":65307,"ELEMENT_SET_NO":999,"REV_AT_EPOCH":2559,"BSTAR":4.3939e-5,"MEAN_MOTION_DOT":-1.04e-6,"MEAN_MOTION_DDOT":0},{"OBJECT_NAME":"HULIANWANG DIGUI-76","OBJECT_ID":"2025-187D","EPOCH":"2026-03-03T02:01:25.546944","MEAN_MOTION":13.2933917,"ECCENTRICITY":0.000104,"INCLINATION":49.9995,"RA_OF_ASC_NODE":226.5663,"ARG_OF_PERICENTER":127.6489,"MEAN_ANOMALY":232.4477,"EPHEMERIS_TYPE":0,"CLASSIFICATION_TYPE":"U","NORAD_CAT_ID":65308,"ELEMENT_SET_NO":999,"REV_AT_EPOCH":2558,"BSTAR":3.55e-5,"MEAN_MOTION_DOT":-1.08e-6,"MEAN_MOTION_DDOT":0},{"OBJECT_NAME":"HULIANWANG DIGUI-77","OBJECT_ID":"2025-187E","EPOCH":"2026-03-03T00:00:55.916352","MEAN_MOTION":13.29341085,"ECCENTRICITY":0.0001076,"INCLINATION":50.003,"RA_OF_ASC_NODE":226.8451,"ARG_OF_PERICENTER":128.1513,"MEAN_ANOMALY":231.9456,"EPHEMERIS_TYPE":0,"CLASSIFICATION_TYPE":"U","NORAD_CAT_ID":65309,"ELEMENT_SET_NO":999,"REV_AT_EPOCH":2557,"BSTAR":5.1441e-5,"MEAN_MOTION_DOT":-1.0e-6,"MEAN_MOTION_DDOT":0},{"OBJECT_NAME":"HULIANWANG DIGUI-78","OBJECT_ID":"2025-187F","EPOCH":"2026-03-03T04:25:33.415392","MEAN_MOTION":13.29341525,"ECCENTRICITY":0.0001029,"INCLINATION":50.0095,"RA_OF_ASC_NODE":225.9236,"ARG_OF_PERICENTER":131.3679,"MEAN_ANOMALY":228.7282,"EPHEMERIS_TYPE":0,"CLASSIFICATION_TYPE":"U","NORAD_CAT_ID":65310,"ELEMENT_SET_NO":999,"REV_AT_EPOCH":2560,"BSTAR":5.0226e-5,"MEAN_MOTION_DOT":-1.01e-6,"MEAN_MOTION_DDOT":0},{"OBJECT_NAME":"HULIANWANG DIGUI-79","OBJECT_ID":"2025-187G","EPOCH":"2026-03-03T02:13:01.504992","MEAN_MOTION":13.29343011,"ECCENTRICITY":0.0001045,"INCLINATION":50.0024,"RA_OF_ASC_NODE":226.6535,"ARG_OF_PERICENTER":128.8384,"MEAN_ANOMALY":231.2582,"EPHEMERIS_TYPE":0,"CLASSIFICATION_TYPE":"U","NORAD_CAT_ID":65311,"ELEMENT_SET_NO":999,"REV_AT_EPOCH":2558,"BSTAR":3.5182e-5,"MEAN_MOTION_DOT":-1.08e-6,"MEAN_MOTION_DDOT":0},{"OBJECT_NAME":"HULIANWANG DIGUI-80","OBJECT_ID":"2025-187H","EPOCH":"2026-03-02T23:48:51.607872","MEAN_MOTION":13.29341086,"ECCENTRICITY":0.0001068,"INCLINATION":50.0015,"RA_OF_ASC_NODE":226.7802,"ARG_OF_PERICENTER":127.5459,"MEAN_ANOMALY":232.551,"EPHEMERIS_TYPE":0,"CLASSIFICATION_TYPE":"U","NORAD_CAT_ID":65312,"ELEMENT_SET_NO":999,"REV_AT_EPOCH":2557,"BSTAR":4.9644e-5,"MEAN_MOTION_DOT":-1.01e-6,"MEAN_MOTION_DDOT":0}]
